{"fetched_at":"2026-07-18T06:28:27.138Z","source":"https://celestrak.org/NORAD/elements/gp.php?NAME=SENTINEL&FORMAT=JSON","constellation":"sentinel-1","records":[{"OBJECT_NAME":"SENTINEL-1A","OBJECT_ID":"2014-016A","EPOCH":"2026-07-17T14:34:46.754976","CLASSIFICATION_TYPE":"U","MEAN_MOTION":14.59175806,"ECCENTRICITY":0.00015106,"INCLINATION":98.1738,"RA_OF_ASC_NODE":205.6947,"ARG_OF_PERICENTER":77.7211,"MEAN_ANOMALY":282.4158,"EPHEMERIS_TYPE":0,"NORAD_CAT_ID":39634,"ELEMENT_SET_NO":999,"REV_AT_EPOCH":65445,"BSTAR":0.000014006304,"MEAN_MOTION_DOT":2e-7,"MEAN_MOTION_DDOT":0},{"OBJECT_NAME":"SENTINEL-1C","OBJECT_ID":"2024-235A","EPOCH":"2026-07-17T23:45:13.384800","CLASSIFICATION_TYPE":"U","MEAN_MOTION":14.59197715,"ECCENTRICITY":0.00013292,"INCLINATION":98.1824,"RA_OF_ASC_NODE":205.8609,"ARG_OF_PERICENTER":88.4353,"MEAN_ANOMALY":271.6999,"EPHEMERIS_TYPE":0,"NORAD_CAT_ID":62261,"ELEMENT_SET_NO":999,"REV_AT_EPOCH":8590,"BSTAR":-0.000001018241,"MEAN_MOTION_DOT":-5.1e-7,"MEAN_MOTION_DDOT":0},{"OBJECT_NAME":"SENTINEL-1D","OBJECT_ID":"2025-251A","EPOCH":"2026-07-17T22:56:04.386048","CLASSIFICATION_TYPE":"U","MEAN_MOTION":14.59197026,"ECCENTRICITY":0.00012933,"INCLINATION":98.1839,"RA_OF_ASC_NODE":205.8821,"ARG_OF_PERICENTER":87.4392,"MEAN_ANOMALY":272.6956,"EPHEMERIS_TYPE":0,"NORAD_CAT_ID":66315,"ELEMENT_SET_NO":999,"REV_AT_EPOCH":3721,"BSTAR":-0.000005079116,"MEAN_MOTION_DOT":-7e-7,"MEAN_MOTION_DDOT":0}]}
