SENTINEL-1A             
1 39634U 14016A   26198.60748559  .00000020  00000+0  14006-4 0  9993
2 39634  98.1738 205.6947 0001510  77.7211 282.4158 14.59175806654458
SENTINEL-1C             
1 62261U 24235A   26198.98973825 -.00000051  00000+0 -10182-5 0  9994
2 62261  98.1824 205.8609 0001329  88.4353 271.6999 14.59197715 85901
SENTINEL-1D             
1 66315U 25251A   26198.95560632 -.00000070  00000+0 -50791-5 0  9993
2 66315  98.1839 205.8821 0001293  87.4392 272.6956 14.59197026 37219
